NORAD_CAT_ID,OBJECT_NAME,OBJECT_TYPE,EPOCH,MEAN_MOTION,ECCENTRICITY,INCLINATION,RA_OF_ASC_NODE,ARG_OF_PERICENTER,MEAN_ANOMALY,BSTAR,MEAN_MOTION_DOT,MEAN_MOTION_DDOT,TLE_LINE0,TLE_LINE1,TLE_LINE2,SEMIMAJOR_AXIS,PERIOD,APOGEE,PERIGEE,DECAYED
50179.0,STARLINK-3283,PAYLOAD,2024-01-04 21:02:58,15.08834769,0.0001366,53.2156,217.1729,96.8058,263.309,1.914e-05,1.7e-07,0.0,0 STARLINK-3283,1 50179U 21125Z   24004.87706908  .00000017  00000-0  19140-4 0  9995,2 50179  53.2156 217.1729 0001366  96.8058 263.3090 15.08834769116122,6917.896,95.438,540.706,538.816,0.0
50179.0,STARLINK-3283,PAYLOAD,2024-01-05 14:32:13,15.08832605,0.0001311,53.2155,213.9032,92.7323,267.3819,5.1227e-05,5.27e-06,0.0,0 STARLINK-3283,1 50179U 21125Z   24005.60571273  .00000527  00000-0  51227-4 0  9990,2 50179  53.2155 213.9032 0001311  92.7323 267.3819 15.08832605116728,6917.903,95.438,540.675,538.861,0.0
50179.0,STARLINK-3283,PAYLOAD,2024-01-05 20:53:46,15.08834237,0.0001327,53.2155,212.7138,93.8778,266.2366,6.2007e-05,6.99e-06,0.0,0 STARLINK-3283,1 50179U 21125Z   24005.87067248  .00000699  00000-0  62007-4 0  9999,2 50179  53.2155 212.7138 0001327  93.8778 266.2366 15.08834237116767,6917.898,95.438,540.681,538.845,0.0
50179.0,STARLINK-3283,PAYLOAD,2024-01-06 19:09:10,15.08837945,0.0001333,53.2153,208.5505,93.4966,266.6178,7.4936e-05,9.05e-06,0.0,0 STARLINK-3283,1 50179U 21125Z   24006.79803292  .00000905  00000-0  74936-4 0  9992,2 50179  53.2153 208.5505 0001333  93.4966 266.6178 15.08837945116414,6917.887,95.438,540.674,538.83,0.0
50179.0,STARLINK-3283,PAYLOAD,2024-01-06 22:19:56,15.08838653,0.0001328,53.2153,207.9556,91.837,268.2774,7.7512e-05,9.46e-06,0.0,0 STARLINK-3283,1 50179U 21125Z   24006.93051244  .00000946  00000-0  77512-4 0  9998,2 50179  53.2153 207.9556 0001328  91.8370 268.2774 15.08838653116921,6917.885,95.438,540.668,538.831,0.0
50179.0,STARLINK-3283,PAYLOAD,2024-01-07 22:10:44,15.08826258,0.0001716,53.2153,203.4959,68.5738,291.5437,-4.983e-05,-1.081e-05,0.0,0 STARLINK-3283,1 50179U 21125Z   24007.92412670 -.00001081  00000-0 -49830-4 0  9997,2 50179  53.2153 203.4959 0001716  68.5738 291.5437 15.08826258117079,6917.922,95.438,540.975,538.6,0.0
50179.0,STARLINK-3283,PAYLOAD,2024-01-08 12:29:12,15.08830286,0.0001539,53.2152,200.8196,75.5966,284.5197,-3.6851e-05,-8.74e-06,0.0,0 STARLINK-3283,1 50179U 21125Z   24008.52028832 -.00000874  00000-0 -36851-4 0  9995,2 50179  53.2152 200.8196 0001539  75.5966 284.5197 15.08830286117167,6917.91,95.438,540.84,538.71,0.0
50179.0,STARLINK-3283,PAYLOAD,2024-01-08 18:50:45,15.08831411,0.0001588,53.2149,199.6323,73.4853,286.6313,-3.0298e-05,-7.7e-06,0.0,0 STARLINK-3283,1 50179U 21125Z   24008.78524829 -.00000770  00000-0 -30298-4 0  9994,2 50179  53.2149 199.6323 0001588  73.4853 286.6313 15.08831411116710,6917.907,95.438,540.87,538.673,0.0
50179.0,STARLINK-3283,PAYLOAD,2024-01-08 20:26:08,15.08834,0.0001627,53.2155,199.334,74.7827,285.3345,9.2548e-07,-2.73e-06,0.0,0 STARLINK-3283,1 50179U 21125Z   24008.85148676 -.00000273  00000-0  92548-6 0  9999,2 50179  53.2155 199.3340 0001627  74.7827 285.3345 15.08834000117216,6917.899,95.438,540.889,538.638,0.0
50179.0,STARLINK-3283,PAYLOAD,2024-01-09 18:41:32,15.08836517,0.0001702,53.2156,195.1705,73.5727,286.5452,0.00010131,1.325e-05,0.0,0 STARLINK-3283,1 50179U 21125Z   24009.77884571  .00001325  00000-0  10131-3 0  9995,2 50179  53.2156 195.1705 0001702  73.5727 286.5452 15.08836517116863,6917.891,95.438,540.933,538.579,0.0
50179.0,STARLINK-3283,PAYLOAD,2024-01-09 21:52:18,15.08840177,0.000169,53.2151,194.5748,77.7004,282.4177,0.00010688,1.413e-05,0.0,0 STARLINK-3283,1 50179U 21125Z   24009.91132356  .00001413  00000-0  10688-3 0  9993,2 50179  53.2151 194.5748 0001690  77.7004 282.4177 15.08840177117371,6917.88,95.438,540.914,538.576,0.0
50179.0,STARLINK-3283,PAYLOAD,2024-01-10 18:32:18,15.08849745,0.000153,53.2157,190.7078,88.0182,272.0985,0.00019736,2.855e-05,0.0,0 STARLINK-3283,1 50179U 21125Z   24010.77243720  .00002855  00000-0  19736-3 0  9991,2 50179  53.2157 190.7078 0001530  88.0182 272.0985 15.08849745117019,6917.851,95.437,540.774,538.657,0.0
50179.0,STARLINK-3283,PAYLOAD,2024-01-11 15:12:19,15.08853404,0.0001569,53.2151,186.843,88.4833,271.6339,0.00015388,2.163e-05,0.0,0 STARLINK-3283,1 50179U 21125Z   24011.63355478  .00002163  00000-0  15388-3 0  9992,2 50179  53.2151 186.8430 0001569  88.4833 271.6339 15.08853404117633,6917.839,95.437,540.79,538.619,0.0
50179.0,STARLINK-3283,PAYLOAD,2024-01-11 21:33:51,15.08856699,0.0001572,53.2153,185.6528,88.5905,271.5267,0.00018017,2.582e-05,0.0,0 STARLINK-3283,1 50179U 21125Z   24011.89851059  .00002582  00000-0  18017-3 0  9993,2 50179  53.2153 185.6528 0001572  88.5905 271.5267 15.08856699117677,6917.829,95.436,540.782,538.607,0.0
50179.0,STARLINK-3283,PAYLOAD,2024-01-12 16:38:29,15.08845583,0.000162,53.2161,182.0799,103.6899,256.4273,-4.6242e-05,-1.024e-05,0.0,0 STARLINK-3283,1 50179U 21125Z   24012.69339547 -.00001024  00000-0 -46242-4 0  9999,2 50179  53.2161 182.0799 0001620 103.6899 256.4273 15.08845583117301,6917.863,95.437,540.849,538.608,0.0
50179.0,STARLINK-3283,PAYLOAD,2024-01-12 21:24:38,15.08843299,0.0001608,53.2162,181.1886,101.6373,258.48,-6.2293e-05,-1.279e-05,0.0,0 STARLINK-3283,1 50179U 21125Z   24012.89211646 -.00001279  00000-0 -62293-4 0  9996,2 50179  53.2162 181.1886 0001608 101.6373 258.4800 15.08843299117827,6917.87,95.437,540.848,538.623,0.0
50179.0,STARLINK-3283,PAYLOAD,2024-01-13 14:53:53,15.08847047,0.0001385,53.2155,177.9196,99.5064,260.6085,-7.3422e-05,-1.456e-05,0.0,0 STARLINK-3283,1 50179U 21125Z   24013.62075432 -.00001456  00000-0 -73422-4 0  9992,2 50179  53.2155 177.9196 0001385  99.5064 260.6085 15.08847047117937,6917.859,95.437,540.682,538.766,0.0
50179.0,STARLINK-3283,PAYLOAD,2024-01-13 19:40:02,15.08851939,0.0001584,53.2159,177.0256,103.5476,256.5693,-5.1388e-05,-1.106e-05,0.0,0 STARLINK-3283,1 50179U 21125Z   24013.81946954 -.00001106  00000-0 -51388-4 0  9998,2 50179  53.2159 177.0256 0001584 103.5476 256.5693 15.08851939117476,6917.844,95.437,540.805,538.613,0.0
50179.0,STARLINK-3283,PAYLOAD,2024-01-14 14:44:40,15.08839976,0.0001384,53.2158,173.459,93.4182,266.6968,7.8438e-05,9.61e-06,0.0,0 STARLINK-3283,1 50179U 21125Z   24014.61435422  .00000961  00000-0  78438-4 0  9991,2 50179  53.2158 173.4590 0001384  93.4182 266.6968 15.08839976118087,6917.88,95.438,540.703,538.788,0.0
50179.0,STARLINK-3283,PAYLOAD,2024-01-14 17:55:26,15.08843766,0.0001401,53.216,172.8645,84.5175,275.5977,0.00010631,1.405e-05,0.0,0 STARLINK-3283,1 50179U 21125Z   24014.74683166  .00001405  00000-0  10631-3 0  9999,2 50179  53.2160 172.8645 0001401  84.5175 275.5977 15.08843766117616,6917.869,95.437,540.703,538.765,0.0
50179.0,STARLINK-3283,PAYLOAD,2024-01-15 09:49:18,15.08838247,0.0001348,53.2154,169.8941,74.7529,285.3612,8.7666e-05,1.108e-05,0.0,0 STARLINK-3283,1 50179U 21125Z   24015.40923637  .00001108  00000-0  87666-4 0  9996,2 50179  53.2154 169.8941 0001348  74.7529 285.3612 15.08838247117712,6917.886,95.438,540.683,538.818,0.0
50179.0,STARLINK-3283,PAYLOAD,2024-01-15 14:35:27,15.08838401,0.0001322,53.2155,169.0014,77.2381,282.8759,7.3375e-05,8.8e-06,0.0,0 STARLINK-3283,1 50179U 21125Z   24015.60795652  .00000880  00000-0  73375-4 0  9990,2 50179  53.2155 169.0014 0001322  77.2381 282.8759 15.08838401118236,6917.885,95.438,540.665,538.836,0.0
50179.0,STARLINK-3283,PAYLOAD,2024-01-15 17:46:13,15.08842638,0.0001334,53.2154,168.4059,84.982,275.1324,0.00010015,1.306e-05,0.0,0 STARLINK-3283,1 50179U 21125Z   24015.74043286  .00001306  00000-0  10015-3 0  9999,2 50179  53.2154 168.4059 0001334  84.9820 275.1324 15.08842638118255,6917.872,95.437,540.66,538.814,0.0
50179.0,STARLINK-3283,PAYLOAD,2024-01-16 09:40:05,15.08835192,0.0001678,53.2154,165.4338,70.22,289.8973,-1.7433e-05,-5.65e-06,0.0,0 STARLINK-3283,1 50179U 21125Z   24016.40284444 -.00000565  00000-0 -17433-4 0  9996,2 50179  53.2154 165.4338 0001678  70.2200 289.8973 15.08835192117868,6917.895,95.438,540.921,538.599,0.0
50179.0,STARLINK-3283,PAYLOAD,2024-01-16 14:26:15,15.0883358,0.0001541,53.2155,164.541,76.9786,283.1379,-3.2316e-05,-8.02e-06,0.0,0 STARLINK-3283,1 50179U 21125Z   24016.60156599 -.00000802  00000-0 -32316-4 0  9998,2 50179  53.2155 164.5410 0001541  76.9786 283.1379 15.08833580118385,6917.9,95.438,540.831,538.699,0.0
50179.0,STARLINK-3283,PAYLOAD,2024-01-16 16:01:38,15.0883543,0.000146,53.2164,164.2424,83.3922,276.7236,-3.7117e-05,-8.79e-06,0.0,0 STARLINK-3283,1 50179U 21125Z   24016.66780459 -.00000879  00000-0 -37117-4 0  9990,2 50179  53.2164 164.2424 0001460  83.3922 276.7236 15.08835430118398,6917.894,95.438,540.769,538.749,0.0
50179.0,STARLINK-3283,PAYLOAD,2024-01-17 14:17:00,15.08857589,0.0001435,53.218,160.0784,60.1344,299.979,3.1182e-05,2.09e-06,0.0,0 STARLINK-3283,1 50179U 21125Z   24017.59514765  .00000209  00000-0  31182-4 0  9999,2 50179  53.2180 160.0784 0001435  60.1344 299.9790 15.08857589118539,6917.827,95.436,540.684,538.699,0.0
50179.0,STARLINK-3283,PAYLOAD,2024-01-17 15:52:22,15.08871296,0.0001299,53.2163,159.7805,83.7379,276.3761,0.00026871,3.995e-05,0.0,0 STARLINK-3283,1 50179U 21125Z   24017.66137245  .00003995  00000-0  26871-3 0  9994,2 50179  53.2163 159.7805 0001299  83.7379 276.3761 15.08871296118051,6917.785,95.436,540.548,538.751,0.0
50179.0,STARLINK-3283,PAYLOAD,2024-01-18 12:32:25,15.08837398,0.0001322,53.217,155.9164,115.0403,245.0726,8.7664e-05,1.107e-05,0.0,0 STARLINK-3283,1 50179U 21125Z   24018.52251721  .00001107  00000-0  87664-4 0  9997,2 50179  53.2170 155.9164 0001322 115.0403 245.0726 15.08837398118182,6917.888,95.438,540.668,538.839,0.0
50179.0,STARLINK-3283,PAYLOAD,2024-01-18 14:07:48,15.08834708,0.0001317,53.2177,155.6162,114.8803,245.2327,3.9244e-05,3.37e-06,0.0,0 STARLINK-3283,1 50179U 21125Z   24018.58875941  .00000337  00000-0  39244-4 0  9994,2 50179  53.2177 155.6162 0001317 114.8803 245.2327 15.08834708118685,6917.897,95.438,540.673,538.85,0.0
